[{"OBJECT_NAME":"STARLINK-1008","OBJECT_ID":"2019-074B","EPOCH":"2026-03-13T14:57:13.880448","MEAN_MOTION":15.31101737,"ECCENTRICITY":0.00012087,"INCLINATION":53.1581,"RA_OF_ASC_NODE":160.4595,"ARG_OF_PERICENTER":101.379,"MEAN_ANOMALY":258.7348,"EPHEMERIS_TYPE":0,"CLASSIFICATION_TYPE":"U","NORAD_CAT_ID":44714,"ELEMENT_SET_NO":999,"REV_AT_EPOCH":34947,"BSTAR":0.00036232161,"MEAN_MOTION_DOT":0.00010689,"MEAN_MOTION_DDOT":0},{"OBJECT_NAME":"STARLINK-1012","OBJECT_ID":"2019-074F","EPOCH":"2026-03-12T13:27:17.966304","MEAN_MOTION":15.30278812,"ECCENTRICITY":0.0001254,"INCLINATION":53.1631,"RA_OF_ASC_NODE":165.4717,"ARG_OF_PERICENTER":73.6386,"MEAN_ANOMALY":286.4753,"EPHEMERIS_TYPE":0,"CLASSIFICATION_TYPE":"U","NORAD_CAT_ID":44718,"ELEMENT_SET_NO":999,"REV_AT_EPOCH":34930,"BSTAR":0.00039976,"MEAN_MOTION_DOT":0.00011528,"MEAN_MOTION_DDOT":0},{"OBJECT_NAME":"STARLINK-1017","OBJECT_ID":"2019-074L","EPOCH":"2026-03-13T06:43:58.112544","MEAN_MOTION":15.24576508,"ECCENTRICITY":0.00016759,"INCLINATION":53.0547,"RA_OF_ASC_NODE":154.8898,"ARG_OF_PERICENTER":47.8079,"MEAN_ANOMALY":312.306,"EPHEMERIS_TYPE":0,"CLASSIFICATION_TYPE":"U","NORAD_CAT_ID":44723,"ELEMENT_SET_NO":999,"REV_AT_EPOCH":34951,"BSTAR":0.001441363,"MEAN_MOTION_DOT":0.00035817,"MEAN_MOTION_DDOT":0},{"OBJECT_NAME":"STARLINK-1019","OBJECT_ID":"2019-074M","EPOCH":"2026-03-13T12:43:57.175104","MEAN_MOTION":15.82448226,"ECCENTRICITY":3.878e-5,"INCLINATION":53.0423,"RA_OF_ASC_NODE":117.3802,"ARG_OF_PERICENTER":264.2017,"MEAN_ANOMALY":95.896,"EPHEMERIS_TYPE":0,"CLASSIFICATION_TYPE":"U","NORAD_CAT_ID":44724,"ELEMENT_SET_NO":999,"REV_AT_EPOCH":35005,"BSTAR":0.00069585376,"MEAN_MOTION_DOT":0.0014965,"MEAN_MOTION_DDOT":0},{"OBJECT_NAME":"STARLINK-1020","OBJECT_ID":"2019-074N","EPOCH":"2026-03-13T07:50:13.169184","MEAN_MOTION":15.30199526,"ECCENTRICITY":0.00012465,"INCLINATION":53.1611,"RA_OF_ASC_NODE":186.955,"ARG_OF_PERICENTER":74.0958,"MEAN_ANOMALY":286.018,"EPHEMERIS_TYPE":0,"CLASSIFICATION_TYPE":"U","NORAD_CAT_ID":44725,"ELEMENT_SET_NO":999,"REV_AT_EPOCH":34906,"BSTAR":0.00023244635,"MEAN_MOTION_DOT":6.531e-5,"MEAN_MOTION_DDOT":0},{"OBJECT_NAME":"STARLINK-1031","OBJECT_ID":"2019-074Z","EPOCH":"2026-03-13T16:00:00.999936","MEAN_MOTION":15.9275583,"ECCENTRICITY":0.00053817,"INCLINATION":53.037,"RA_OF_ASC_NODE":99.7363,"ARG_OF_PERICENTER":21.7434,"MEAN_ANOMALY":36.8295,"EPHEMERIS_TYPE":0,"CLASSIFICATION_TYPE":"U","NORAD_CAT_ID":44736,"ELEMENT_SET_NO":999,"REV_AT_EPOCH":603,"BSTAR":0.0005936023,"MEAN_MOTION_DOT":0.00206809,"MEAN_MOTION_DDOT":2.7248342e-5},{"OBJECT_NAME":"STARLINK-1036","OBJECT_ID":"2019-074AE","EPOCH":"2026-03-13T00:00:02.000160","MEAN_MOTION":15.56695095,"ECCENTRICITY":0.00037387,"INCLINATION":53.0492,"RA_OF_ASC_NODE":172.5153,"ARG_OF_PERICENTER":308.7308,"MEAN_ANOMALY":319.4082,"EPHEMERIS_TYPE":0,"CLASSIFICATION_TYPE":"U","NORAD_CAT_ID":44741,"ELEMENT_SET_NO":999,"REV_AT_EPOCH":592,"BSTAR":0.0011363698,"MEAN_MOTION_DOT":0.00082966,"MEAN_MOTION_DDOT":0},{"OBJECT_NAME":"STARLINK-1039","OBJECT_ID":"2019-074AH","EPOCH":"2026-03-13T08:36:25.400448","MEAN_MOTION":15.22106866,"ECCENTRICITY":0.00021761,"INCLINATION":53.0518,"RA_OF_ASC_NODE":198.2291,"ARG_OF_PERICENTER":192.9776,"MEAN_ANOMALY":167.1165,"EPHEMERIS_TYPE":0,"CLASSIFICATION_TYPE":"U","NORAD_CAT_ID":44744,"ELEMENT_SET_NO":999,"REV_AT_EPOCH":34891,"BSTAR":0.0021393603,"MEAN_MOTION_DOT":0.00049638,"MEAN_MOTION_DDOT":0},{"OBJECT_NAME":"STARLINK-1042","OBJECT_ID":"2019-074AL","EPOCH":"2026-03-13T09:26:28.768992","MEAN_MOTION":15.50013016,"ECCENTRICITY":0.00018027,"INCLINATION":53.0433,"RA_OF_ASC_NODE":77.021,"ARG_OF_PERICENTER":111.7354,"MEAN_ANOMALY":248.3846,"EPHEMERIS_TYPE":0,"CLASSIFICATION_TYPE":"U","NORAD_CAT_ID":44747,"ELEMENT_SET_NO":999,"REV_AT_EPOCH":35064,"BSTAR":0.00045851522,"MEAN_MOTION_DOT":0.00025779,"MEAN_MOTION_DDOT":0},{"OBJECT_NAME":"STARLINK-1043","OBJECT_ID":"2019-074AM","EPOCH":"2026-03-13T07:46:44.419008","MEAN_MOTION":15.53937735,"ECCENTRICITY":0.0002214,"INCLINATION":53.052,"RA_OF_ASC_NODE":176.9587,"ARG_OF_PERICENTER":76.6177,"MEAN_ANOMALY":283.5079,"EPHEMERIS_TYPE":0,"CLASSIFICATION_TYPE":"U","NORAD_CAT_ID":44748,"ELEMENT_SET_NO":999,"REV_AT_EPOCH":34921,"BSTAR":0.00046535089,"MEAN_MOTION_DOT":0.00030193,"MEAN_MOTION_DDOT":0},{"OBJECT_NAME":"STARLINK-1046","OBJECT_ID":"2019-074AQ","EPOCH":"2026-03-13T08:45:51.405120","MEAN_MOTION":15.43945252,"ECCENTRICITY":0.00044283,"INCLINATION":53.0537,"RA_OF_ASC_NODE":193.3807,"ARG_OF_PERICENTER":187.806,"MEAN_ANOMALY":172.2877,"EPHEMERIS_TYPE":0,"CLASSIFICATION_TYPE":"U","NORAD_CAT_ID":44751,"ELEMENT_SET_NO":999,"REV_AT_EPOCH":34898,"BSTAR":0.0009058589,"MEAN_MOTION_DOT":0.00041681,"MEAN_MOTION_DDOT":0},{"OBJECT_NAME":"STARLINK-1047","OBJECT_ID":"2019-074AR","EPOCH":"2026-03-13T03:33:15.204960","MEAN_MOTION":15.32668632,"ECCENTRICITY":0.00019517,"INCLINATION":53.07,"RA_OF_ASC_NODE":129.8491,"ARG_OF_PERICENTER":218.9229,"MEAN_ANOMALY":141.1632,"EPHEMERIS_TYPE":0,"CLASSIFICATION_TYPE":"U","NORAD_CAT_ID":44752,"ELEMENT_SET_NO":999,"REV_AT_EPOCH":34987,"BSTAR":0.00031373995,"MEAN_MOTION_DOT":9.68e-5,"MEAN_MOTION_DDOT":0},{"OBJECT_NAME":"STARLINK-1048","OBJECT_ID":"2019-074AS","EPOCH":"2026-03-13T16:00:00.999936","MEAN_MOTION":15.54238659,"ECCENTRICITY":0.00010752,"INCLINATION":53.0512,"RA_OF_ASC_NODE":149.6507,"ARG_OF_PERICENTER":7.1359,"MEAN_ANOMALY":154.6153,"EPHEMERIS_TYPE":0,"CLASSIFICATION_TYPE":"U","NORAD_CAT_ID":44753,"ELEMENT_SET_NO":999,"REV_AT_EPOCH":587,"BSTAR":0.0023895591,"MEAN_MOTION_DOT":0.00161405,"MEAN_MOTION_DDOT":0},{"OBJECT_NAME":"STARLINK-1053","OBJECT_ID":"2019-074AX","EPOCH":"2026-03-13T16:00:00.999936","MEAN_MOTION":15.94661016,"ECCENTRICITY":0.0006854,"INCLINATION":53.026,"RA_OF_ASC_NODE":63.0767,"ARG_OF_PERICENTER":77.4083,"MEAN_ANOMALY":135.3844,"EPHEMERIS_TYPE":0,"CLASSIFICATION_TYPE":"U","NORAD_CAT_ID":44758,"ELEMENT_SET_NO":999,"REV_AT_EPOCH":596,"BSTAR":0.00080576881,"MEAN_MOTION_DOT":0.00312541,"MEAN_MOTION_DDOT":4.9290589e-5},{"OBJECT_NAME":"STARLINK-1063","OBJECT_ID":"2019-074BH","EPOCH":"2026-03-13T12:58:19.988832","MEAN_MOTION":15.30188976,"ECCENTRICITY":0.00039778,"INCLINATION":53.1605,"RA_OF_ASC_NODE":201.5066,"ARG_OF_PERICENTER":123.9914,"MEAN_ANOMALY":236.1465,"EPHEMERIS_TYPE":0,"CLASSIFICATION_TYPE":"U","NORAD_CAT_ID":44768,"ELEMENT_SET_NO":999,"REV_AT_EPOCH":34890,"BSTAR":-0.035164358,"MEAN_MOTION_DOT":-0.00963547,"MEAN_MOTION_DDOT":0},{"OBJECT_NAME":"STARLINK-1067","OBJECT_ID":"2019-074BL","EPOCH":"2026-03-13T16:00:00.999936","MEAN_MOTION":15.58230076,"ECCENTRICITY":0.0004461,"INCLINATION":53.0496,"RA_OF_ASC_NODE":184.8636,"ARG_OF_PERICENTER":346.7827,"MEAN_ANOMALY":344.986,"EPHEMERIS_TYPE":0,"CLASSIFICATION_TYPE":"U","NORAD_CAT_ID":44771,"ELEMENT_SET_NO":999,"REV_AT_EPOCH":595,"BSTAR":8.9096589e-5,"MEAN_MOTION_DOT":6.36e-5,"MEAN_MOTION_DDOT":0}]
